OSCAR 7 (AO-7)          
1 07530U 74089B   26065.28544197 -.00000049  00000+0 -17908-4 0  9995
2 07530 101.9970  77.4386 0011994 328.7133 101.0448 12.53696322347629
PHASE 3B (AO-10)        
1 14129U 83058B   26061.53393855 -.00000164  00000+0  00000+0 0  9997
2 14129  25.9320 237.4860 6049007  86.0782 336.7646  2.05874052293290
UOSAT 2 (UO-11)         
1 14781U 84021B   26065.18271645  .00002652  00000+0  27724-3 0  9998
2 14781  97.7947  31.9980 0008136 153.9330 206.2299 14.90490867241788
LUSAT (LO-19)           
1 20442U 90005G   26065.27201652  .00000209  00000+0  91411-4 0  9990
2 20442  98.8938  84.2021 0012210 143.9370 216.2640 14.34086386887646
EYESAT A (AO-27)        
1 22825U 93061C   26064.79121341  .00000169  00000+0  81260-4 0  9990
2 22825  98.6989 132.1982 0009125  49.5393 310.6583 14.30911618692216
ITAMSAT (IO-26)         
1 22826U 93061D   26065.15085035  .00000157  00000+0  76266-4 0  9998
2 22826  98.6937 132.4654 0009397  32.9222 327.2544 14.31335514692573
RADIO ROSTO (RS15)      
1 23439U 94085A   26065.23665596 -.00000021  00000+0  61333-3 0  9990
2 23439  64.8143 109.7183 0152538  22.6787 338.0784 11.27583913284292
JAS-2 (FO-29)           
1 24278U 96046B   26065.24583862 -.00000018  00000+0  18035-4 0  9995
2 24278  98.5385 288.1312 0349969   3.7013 356.6595 13.53268515459244
TECHSAT 1B (GO-32)      
1 25397U 98043D   26064.94689580  .00000100  00000+0  63444-4 0  9992
2 25397  99.0023  55.1278 0001952 125.5048 234.6312 14.24404795436634
ISS (ZARYA)             
1 25544U 98067A   26065.22200803  .00008136  00000+0  15844-3 0  9998
2 25544  51.6317  89.5003 0008136 162.2758 197.8515 15.48470661555798
PCSAT (NO-44)           
1 26931U 01043C   26065.27552210  .00000256  00000+0  12643-3 0  9993
2 26931  67.0508 150.4424 0007018 265.2880  94.7421 14.31910221275719
SAUDISAT 1C (SO-50)     
1 27607U 02058C   26065.24519069  .00002366  00000+0  29613-3 0  9992
2 27607  64.5519  87.4255 0075185 281.3249  77.9416 14.82766526249196
CUTE-1 (CO-55)          
1 27844U 03031E   26064.98098691  .00000414  00000+0  19809-3 0  9998
2 27844  98.6779  74.8258 0010558 122.1079 238.1126 14.24262327176985
CUBESAT XI-IV (CO-57)   
1 27848U 03031J   26064.98829135  .00000334  00000+0  16598-3 0  9990
2 27848  98.6809  74.6285 0010225 138.5816 221.6139 14.23557958176697
MOZHAETS 4 (RS22)       
1 27939U 03042A   26065.33607789  .00001389  00000+0  22324-3 0  9997
2 27939  98.3428 246.8037 0010334 231.8331 248.5342 14.73241443200405
CUBESAT XI-V            
1 28895U 05043F   26064.84207073  .00002485  00000+0  40085-3 0  9991
2 28895  98.2823 218.3934 0014522 169.6232 190.5277 14.72298506 86547
