[{"OBJECT_NAME":"OSCAR 7 (AO-7)","OBJECT_ID":"1974-089B","EPOCH":"2026-03-06T06:51:02.186208","MEAN_MOTION":12.53696322,"ECCENTRICITY":0.00119942,"INCLINATION":101.997,"RA_OF_ASC_NODE":77.4386,"ARG_OF_PERICENTER":328.7133,"MEAN_ANOMALY":101.0448,"EPHEMERIS_TYPE":0,"CLASSIFICATION_TYPE":"U","NORAD_CAT_ID":7530,"ELEMENT_SET_NO":999,"REV_AT_EPOCH":34762,"BSTAR":-1.7908001e-5,"MEAN_MOTION_DOT":-4.9e-7,"MEAN_MOTION_DDOT":0},{"OBJECT_NAME":"PHASE 3B (AO-10)","OBJECT_ID":"1983-058B","EPOCH":"2026-03-02T12:48:52.290720","MEAN_MOTION":2.05874052,"ECCENTRICITY":0.6049007,"INCLINATION":25.932,"RA_OF_ASC_NODE":237.486,"ARG_OF_PERICENTER":86.0782,"MEAN_ANOMALY":336.7646,"EPHEMERIS_TYPE":0,"CLASSIFICATION_TYPE":"U","NORAD_CAT_ID":14129,"ELEMENT_SET_NO":999,"REV_AT_EPOCH":29329,"BSTAR":0,"MEAN_MOTION_DOT":-1.64e-6,"MEAN_MOTION_DDOT":0},{"OBJECT_NAME":"UOSAT 2 (UO-11)","OBJECT_ID":"1984-021B","EPOCH":"2026-03-06T04:23:06.701280","MEAN_MOTION":14.90490867,"ECCENTRICITY":0.00081361,"INCLINATION":97.7947,"RA_OF_ASC_NODE":31.998,"ARG_OF_PERICENTER":153.933,"MEAN_ANOMALY":206.2299,"EPHEMERIS_TYPE":0,"CLASSIFICATION_TYPE":"U","NORAD_CAT_ID":14781,"ELEMENT_SET_NO":999,"REV_AT_EPOCH":24178,"BSTAR":0.00027723832,"MEAN_MOTION_DOT":2.652e-5,"MEAN_MOTION_DDOT":0},{"OBJECT_NAME":"LUSAT (LO-19)","OBJECT_ID":"1990-005G","EPOCH":"2026-03-06T06:31:42.227328","MEAN_MOTION":14.34086386,"ECCENTRICITY":0.00122101,"INCLINATION":98.8938,"RA_OF_ASC_NODE":84.2021,"ARG_OF_PERICENTER":143.937,"MEAN_ANOMALY":216.264,"EPHEMERIS_TYPE":0,"CLASSIFICATION_TYPE":"U","NORAD_CAT_ID":20442,"ELEMENT_SET_NO":999,"REV_AT_EPOCH":88764,"BSTAR":9.1411492e-5,"MEAN_MOTION_DOT":2.09e-6,"MEAN_MOTION_DDOT":0},{"OBJECT_NAME":"EYESAT A (AO-27)","OBJECT_ID":"1993-061C","EPOCH":"2026-03-05T18:59:20.838624","MEAN_MOTION":14.30911618,"ECCENTRICITY":0.00091256,"INCLINATION":98.6989,"RA_OF_ASC_NODE":132.1982,"ARG_OF_PERICENTER":49.5393,"MEAN_ANOMALY":310.6583,"EPHEMERIS_TYPE":0,"CLASSIFICATION_TYPE":"U","NORAD_CAT_ID":22825,"ELEMENT_SET_NO":999,"REV_AT_EPOCH":69221,"BSTAR":8.1260168e-5,"MEAN_MOTION_DOT":1.69e-6,"MEAN_MOTION_DDOT":0},{"OBJECT_NAME":"ITAMSAT (IO-26)","OBJECT_ID":"1993-061D","EPOCH":"2026-03-06T03:37:13.470240","MEAN_MOTION":14.31335514,"ECCENTRICITY":0.00093974,"INCLINATION":98.6937,"RA_OF_ASC_NODE":132.4654,"ARG_OF_PERICENTER":32.9222,"MEAN_ANOMALY":327.2544,"EPHEMERIS_TYPE":0,"CLASSIFICATION_TYPE":"U","NORAD_CAT_ID":22826,"ELEMENT_SET_NO":999,"REV_AT_EPOCH":69257,"BSTAR":7.6266454e-5,"MEAN_MOTION_DOT":1.57e-6,"MEAN_MOTION_DDOT":0},{"OBJECT_NAME":"RADIO ROSTO (RS15)","OBJECT_ID":"1994-085A","EPOCH":"2026-03-06T05:40:47.074944","MEAN_MOTION":11.27583913,"ECCENTRICITY":0.01525383,"INCLINATION":64.8143,"RA_OF_ASC_NODE":109.7183,"ARG_OF_PERICENTER":22.6787,"MEAN_ANOMALY":338.0784,"EPHEMERIS_TYPE":0,"CLASSIFICATION_TYPE":"U","NORAD_CAT_ID":23439,"ELEMENT_SET_NO":999,"REV_AT_EPOCH":28429,"BSTAR":0.00061332755,"MEAN_MOTION_DOT":-2.1e-7,"MEAN_MOTION_DDOT":0},{"OBJECT_NAME":"JAS-2 (FO-29)","OBJECT_ID":"1996-046B","EPOCH":"2026-03-06T05:54:00.456768","MEAN_MOTION":13.53268515,"ECCENTRICITY":0.03499698,"INCLINATION":98.5385,"RA_OF_ASC_NODE":288.1312,"ARG_OF_PERICENTER":3.7013,"MEAN_ANOMALY":356.6595,"EPHEMERIS_TYPE":0,"CLASSIFICATION_TYPE":"U","NORAD_CAT_ID":24278,"ELEMENT_SET_NO":999,"REV_AT_EPOCH":45924,"BSTAR":1.8034958e-5,"MEAN_MOTION_DOT":-1.8e-7,"MEAN_MOTION_DDOT":0},{"OBJECT_NAME":"TECHSAT 1B (GO-32)","OBJECT_ID":"1998-043D","EPOCH":"2026-03-05T22:43:31.797120","MEAN_MOTION":14.24404795,"ECCENTRICITY":0.00019522,"INCLINATION":99.0023,"RA_OF_ASC_NODE":55.1278,"ARG_OF_PERICENTER":125.5048,"MEAN_ANOMALY":234.6312,"EPHEMERIS_TYPE":0,"CLASSIFICATION_TYPE":"U","NORAD_CAT_ID":25397,"ELEMENT_SET_NO":999,"REV_AT_EPOCH":43663,"BSTAR":6.3443942e-5,"MEAN_MOTION_DOT":1.0e-6,"MEAN_MOTION_DDOT":0},{"OBJECT_NAME":"ISS (ZARYA)","OBJECT_ID":"1998-067A","EPOCH":"2026-03-06T05:19:41.493792","MEAN_MOTION":15.48470661,"ECCENTRICITY":0.00081363,"INCLINATION":51.6317,"RA_OF_ASC_NODE":89.5003,"ARG_OF_PERICENTER":162.2758,"MEAN_ANOMALY":197.8515,"EPHEMERIS_TYPE":0,"CLASSIFICATION_TYPE":"U","NORAD_CAT_ID":25544,"ELEMENT_SET_NO":999,"REV_AT_EPOCH":55579,"BSTAR":0.00015844115,"MEAN_MOTION_DOT":8.136e-5,"MEAN_MOTION_DDOT":0},{"OBJECT_NAME":"PCSAT (NO-44)","OBJECT_ID":"2001-043C","EPOCH":"2026-03-06T06:36:45.109440","MEAN_MOTION":14.31910221,"ECCENTRICITY":0.00070189,"INCLINATION":67.0508,"RA_OF_ASC_NODE":150.4424,"ARG_OF_PERICENTER":265.288,"MEAN_ANOMALY":94.7421,"EPHEMERIS_TYPE":0,"CLASSIFICATION_TYPE":"U","NORAD_CAT_ID":26931,"ELEMENT_SET_NO":999,"REV_AT_EPOCH":27571,"BSTAR":0.00012643248,"MEAN_MOTION_DOT":2.56e-6,"MEAN_MOTION_DDOT":0},{"OBJECT_NAME":"SAUDISAT 1C (SO-50)","OBJECT_ID":"2002-058C","EPOCH":"2026-03-06T05:53:04.475616","MEAN_MOTION":14.82766526,"ECCENTRICITY":0.00751853,"INCLINATION":64.5519,"RA_OF_ASC_NODE":87.4255,"ARG_OF_PERICENTER":281.3249,"MEAN_ANOMALY":77.9416,"EPHEMERIS_TYPE":0,"CLASSIFICATION_TYPE":"U","NORAD_CAT_ID":27607,"ELEMENT_SET_NO":999,"REV_AT_EPOCH":24919,"BSTAR":0.00029613132,"MEAN_MOTION_DOT":2.366e-5,"MEAN_MOTION_DDOT":0},{"OBJECT_NAME":"CUTE-1 (CO-55)","OBJECT_ID":"2003-031E","EPOCH":"2026-03-05T23:32:37.269024","MEAN_MOTION":14.24262327,"ECCENTRICITY":0.00105588,"INCLINATION":98.6779,"RA_OF_ASC_NODE":74.8258,"ARG_OF_PERICENTER":122.1079,"MEAN_ANOMALY":238.1126,"EPHEMERIS_TYPE":0,"CLASSIFICATION_TYPE":"U","NORAD_CAT_ID":27844,"ELEMENT_SET_NO":999,"REV_AT_EPOCH":17698,"BSTAR":0.00019809167,"MEAN_MOTION_DOT":4.14e-6,"MEAN_MOTION_DDOT":0},{"OBJECT_NAME":"CUBESAT XI-IV (CO-57)","OBJECT_ID":"2003-031J","EPOCH":"2026-03-05T23:43:08.372640","MEAN_MOTION":14.23557958,"ECCENTRICITY":0.00102256,"INCLINATION":98.6809,"RA_OF_ASC_NODE":74.6285,"ARG_OF_PERICENTER":138.5816,"MEAN_ANOMALY":221.6139,"EPHEMERIS_TYPE":0,"CLASSIFICATION_TYPE":"U","NORAD_CAT_ID":27848,"ELEMENT_SET_NO":999,"REV_AT_EPOCH":17669,"BSTAR":0.00016598253,"MEAN_MOTION_DOT":3.34e-6,"MEAN_MOTION_DDOT":0},{"OBJECT_NAME":"MOZHAETS 4 (RS22)","OBJECT_ID":"2003-042A","EPOCH":"2026-03-06T08:03:57.129696","MEAN_MOTION":14.73241443,"ECCENTRICITY":0.00103342,"INCLINATION":98.3428,"RA_OF_ASC_NODE":246.8037,"ARG_OF_PERICENTER":231.8331,"MEAN_ANOMALY":248.5342,"EPHEMERIS_TYPE":0,"CLASSIFICATION_TYPE":"U","NORAD_CAT_ID":27939,"ELEMENT_SET_NO":999,"REV_AT_EPOCH":20040,"BSTAR":0.00022324072,"MEAN_MOTION_DOT":1.389e-5,"MEAN_MOTION_DDOT":0},{"OBJECT_NAME":"CUBESAT XI-V","OBJECT_ID":"2005-043F","EPOCH":"2026-03-05T20:12:34.911072","MEAN_MOTION":14.72298506,"ECCENTRICITY":0.00145228,"INCLINATION":98.2823,"RA_OF_ASC_NODE":218.3934,"ARG_OF_PERICENTER":169.6232,"MEAN_ANOMALY":190.5277,"EPHEMERIS_TYPE":0,"CLASSIFICATION_TYPE":"U","NORAD_CAT_ID":28895,"ELEMENT_SET_NO":999,"REV_AT_EPOCH":8654,"BSTAR":0.00040085075,"MEAN_MOTION_DOT":2.485e-5,"MEAN_MOTION_DDOT":0}]
